{
  "type": "FeatureCollection",
  "features": [
    {
      "type": "Feature",
      "properties": {
        "norad_id": 46277,
        "name": "NEMO-HD",
        "group": "resource",
        "lat": -13.240105243256274,
        "lon": -121.32344627595576,
        "alt_km": 449.38844331538803,
        "timestamp": "2025-12-27T11:23:19.535200+00:00",
        "meta_object_name": "NEMO-HD",
        "meta_object_id": "2020-061F",
        "meta_epoch": "2025-12-27T04:19:02.709408",
        "meta_mean_motion": 15.40628484,
        "meta_eccentricity": 9.62e-05,
        "meta_inclination": 97.2188,
        "meta_ra_of_asc_node": 60.0946,
        "meta_arg_of_pericenter": 56.1272,
        "meta_mean_anomaly": 304.0066,
        "meta_ephemeris_type": 0,
        "meta_classification_type": "U",
        "meta_norad_cat_id": 46277,
        "meta_element_set_no": 999,
        "meta_rev_at_epoch": 29546,
        "meta_bstar": 0.00031366,
        "meta_mean_motion_dot": 0.00012699,
        "meta_mean_motion_ddot": 0,
        "tle_line1": "1 46277U 20061F   25361.17989247  .00012699  00000+0  31366-3 0  9997",
        "tle_line2": "2 46277  97.2188  60.0946 0000962  56.1272 304.0066 15.40628484295465"
      },
      "geometry": {
        "type": "Point",
        "coordinates": [
          -121.32344627595576,
          -13.240105243256274
        ]
      }
    },
    {
      "type": "Feature",
      "properties": {
        "norad_id": 46984,
        "name": "SENTINEL-6A",
        "group": "resource",
        "lat": -0.22204512066000417,
        "lon": 131.6050667701899,
        "alt_km": 1339.7217549279658,
        "timestamp": "2025-12-27T11:23:19.535210+00:00",
        "meta_object_name": "SENTINEL-6A",
        "meta_object_id": "2020-086A",
        "meta_epoch": "2025-12-27T02:01:15.305088",
        "meta_mean_motion": 12.80930827,
        "meta_eccentricity": 0.0007765,
        "meta_inclination": 66.0404,
        "meta_ra_of_asc_node": 132.5143,
        "meta_arg_of_pericenter": 269.4807,
        "meta_mean_anomaly": 90.5318,
        "meta_ephemeris_type": 0,
        "meta_classification_type": "U",
        "meta_norad_cat_id": 46984,
        "meta_element_set_no": 999,
        "meta_rev_at_epoch": 23828,
        "meta_bstar": 8.8344e-05,
        "meta_mean_motion_dot": -4.1e-07,
        "meta_mean_motion_ddot": 0,
        "tle_line1": "1 46984U 20086A   25361.08420492 -.00000041  00000+0  88344-4 0  9999",
        "tle_line2": "2 46984  66.0404 132.5143 0007765 269.4807  90.5318 12.80930827238282"
      },
      "geometry": {
        "type": "Point",
        "coordinates": [
          131.6050667701899,
          -0.22204512066000417
        ]
      }
    },
    {
      "type": "Feature",
      "properties": {
        "norad_id": 48079,
        "name": "GAOFEN-12 02",
        "group": "resource",
        "lat": 8.47824235063974,
        "lon": -5.78860992090249,
        "alt_km": 627.850296515553,
        "timestamp": "2025-12-27T11:23:19.535220+00:00",
        "meta_object_name": "GAOFEN-12 02",
        "meta_object_id": "2021-026A",
        "meta_epoch": "2025-12-27T04:51:46.141632",
        "meta_mean_motion": 14.80692598,
        "meta_eccentricity": 0.0003522,
        "meta_inclination": 97.9858,
        "meta_ra_of_asc_node": 355.1398,
        "meta_arg_of_pericenter": 72.1721,
        "meta_mean_anomaly": 287.9875,
        "meta_ephemeris_type": 0,
        "meta_classification_type": "U",
        "meta_norad_cat_id": 48079,
        "meta_element_set_no": 999,
        "meta_rev_at_epoch": 25631,
        "meta_bstar": 8.9709e-05,
        "meta_mean_motion_dot": 6.37e-06,
        "meta_mean_motion_ddot": 0,
        "tle_line1": "1 48079U 21026A   25361.20261738  .00000637  00000+0  89709-4 0  9997",
        "tle_line2": "2 48079  97.9858 355.1398 0003522  72.1721 287.9875 14.80692598256317"
      },
      "geometry": {
        "type": "Point",
        "coordinates": [
          -5.78860992090249,
          8.47824235063974
        ]
      }
    },
    {
      "type": "Feature",
      "properties": {
        "norad_id": 48268,
        "name": "PLEIADES NEO 3",
        "group": "resource",
        "lat": 51.25938964650863,
        "lon": -96.33753859707006,
        "alt_km": 618.5902159253565,
        "timestamp": "2025-12-27T11:23:19.535230+00:00",
        "meta_object_name": "PLEIADES NEO 3",
        "meta_object_id": "2021-034A",
        "meta_epoch": "2025-12-27T04:19:48.408096",
        "meta_mean_motion": 14.8167481,
        "meta_eccentricity": 0.0001354,
        "meta_inclination": 97.8941,
        "meta_ra_of_asc_node": 73.414,
        "meta_arg_of_pericenter": 89.2694,
        "meta_mean_anomaly": 270.8674,
        "meta_ephemeris_type": 0,
        "meta_classification_type": "U",
        "meta_norad_cat_id": 48268,
        "meta_element_set_no": 999,
        "meta_rev_at_epoch": 25218,
        "meta_bstar": 5.9534e-05,
        "meta_mean_motion_dot": 4.16e-06,
        "meta_mean_motion_ddot": 0,
        "tle_line1": "1 48268U 21034A   25361.18042139  .00000416  00000+0  59534-4 0  9993",
        "tle_line2": "2 48268  97.8941  73.4140 0001354  89.2694 270.8674 14.81674810252180"
      },
      "geometry": {
        "type": "Point",
        "coordinates": [
          -96.33753859707006,
          51.25938964650863
        ]
      }
    },
    {
      "type": "Feature",
      "properties": {
        "norad_id": 49070,
        "name": "PLEIADES NEO 4",
        "group": "resource",
        "lat": -51.37553853476344,
        "lon": 83.70018340190528,
        "alt_km": 631.7283530577415,
        "timestamp": "2025-12-27T11:23:19.535240+00:00",
        "meta_object_name": "PLEIADES NEO 4",
        "meta_object_id": "2021-073E",
        "meta_epoch": "2025-12-27T05:08:24.935136",
        "meta_mean_motion": 14.8167111,
        "meta_eccentricity": 0.000132,
        "meta_inclination": 97.8941,
        "meta_ra_of_asc_node": 73.4431,
        "meta_arg_of_pericenter": 89.8752,
        "meta_mean_anomaly": 270.2612,
        "meta_ephemeris_type": 0,
        "meta_classification_type": "U",
        "meta_norad_cat_id": 49070,
        "meta_element_set_no": 999,
        "meta_rev_at_epoch": 23590,
        "meta_bstar": -6.145e-05,
        "meta_mean_motion_dot": -5.36e-06,
        "meta_mean_motion_ddot": 0,
        "tle_line1": "1 49070U 21073E   25361.21417749 -.00000536  00000+0 -61450-4 0  9990",
        "tle_line2": "2 49070  97.8941  73.4431 0001320  89.8752 270.2612 14.81671110235906"
      },
      "geometry": {
        "type": "Point",
        "coordinates": [
          83.70018340190528,
          -51.37553853476344
        ]
      }
    },
    {
      "type": "Feature",
      "properties": {
        "norad_id": 49260,
        "name": "LANDSAT 9",
        "group": "resource",
        "lat": 74.00899657743746,
        "lon": -80.38839080470053,
        "alt_km": 694.6619118508561,
        "timestamp": "2025-12-27T11:23:19.535250+00:00",
        "meta_object_name": "LANDSAT 9",
        "meta_object_id": "2021-088A",
        "meta_epoch": "2025-12-27T04:19:19.839936",
        "meta_mean_motion": 14.57112985,
        "meta_eccentricity": 0.0001104,
        "meta_inclination": 98.2075,
        "meta_ra_of_asc_node": 69.0804,
        "meta_arg_of_pericenter": 93.7467,
        "meta_mean_anomaly": 266.3858,
        "meta_ephemeris_type": 0,
        "meta_classification_type": "U",
        "meta_norad_cat_id": 49260,
        "meta_element_set_no": 999,
        "meta_rev_at_epoch": 22595,
        "meta_bstar": 0.00012601,
        "meta_mean_motion_dot": 5.23e-06,
        "meta_mean_motion_ddot": 0,
        "tle_line1": "1 49260U 21088A   25361.18009074  .00000523  00000+0  12601-3 0  9998",
        "tle_line2": "2 49260  98.2075  69.0804 0001104  93.7467 266.3858 14.57112985225957"
      },
      "geometry": {
        "type": "Point",
        "coordinates": [
          -80.38839080470053,
          74.00899657743746
        ]
      }
    },
    {
      "type": "Feature",
      "properties": {
        "norad_id": 51444,
        "name": "CSG-2",
        "group": "resource",
        "lat": 5.940812961584102,
        "lon": -178.25058944441597,
        "alt_km": 624.5021730130784,
        "timestamp": "2025-12-27T11:23:19.535260+00:00",
        "meta_object_name": "CSG-2",
        "meta_object_id": "2022-008A",
        "meta_epoch": "2025-12-27T04:52:50.812896",
        "meta_mean_motion": 14.82158663,
        "meta_eccentricity": 0.0001459,
        "meta_inclination": 97.8808,
        "meta_ra_of_asc_node": 182.3083,
        "meta_arg_of_pericenter": 83.8801,
        "meta_mean_anomaly": 276.2578,
        "meta_ephemeris_type": 0,
        "meta_classification_type": "U",
        "meta_norad_cat_id": 51444,
        "meta_element_set_no": 999,
        "meta_rev_at_epoch": 21111,
        "meta_bstar": 9.9951e-05,
        "meta_mean_motion_dot": 7.44e-06,
        "meta_mean_motion_ddot": 0,
        "tle_line1": "1 51444U 22008A   25361.20336589  .00000744  00000+0  99951-4 0  9994",
        "tle_line2": "2 51444  97.8808 182.3083 0001459  83.8801 276.2578 14.82158663211119"
      },
      "geometry": {
        "type": "Point",
        "coordinates": [
          -178.25058944441597,
          5.940812961584102
        ]
      }
    }
  ]
}